{"fetched_at":"2026-03-29T02:12:04Z","count":15717,"tles":[{"name":"MERIDIAN 7","line1":"1 40296U 14069A   26086.42573530  .00000111  00000+0  00000+0 0  9993","line2":"2 40296  63.4571 223.4310 6678556 271.0900  19.1383  2.00582684 83591","category":"Other"}]}